CCSDS_OMM_VERS = 2.0
CREATION_DATE  = 
ORIGINATOR     = 

OBJECT_NAME    = SL-16 R/B
OBJECT_ID      = 1998-043G
CENTER_NAME    = EARTH
REF_FRAME      = TEME
TIME_SYSTEM    = UTC
MEAN_ELEMENT_THEORY = SGP/SGP4

EPOCH          = 2025-12-07T21:17:04.576992
MEAN_MOTION    = 14.26023650
ECCENTRICITY   = .00088601
INCLINATION    = 98.8117
RA_OF_ASC_NODE = 289.6780
ARG_OF_PERICENTER = 282.4564
MEAN_ANOMALY   = 77.5624

EPHEMERIS_TYPE = 0
CLASSIFICATION_TYPE = U
NORAD_CAT_ID   = 25400
ELEMENT_SET_NO = 999
REV_AT_EPOCH   = 42590
BSTAR          = .7838031E-4
MEAN_MOTION_DOT = .142E-5
MEAN_MOTION_DDOT = 0

CCSDS_OMM_VERS = 2.0
CREATION_DATE  = 
ORIGINATOR     = 

OBJECT_NAME    = SL-16 R/B
OBJECT_ID      = 1998-045B
CENTER_NAME    = EARTH
REF_FRAME      = TEME
TIME_SYSTEM    = UTC
MEAN_ELEMENT_THEORY = SGP/SGP4

EPOCH          = 2025-12-07T19:41:17.182464
MEAN_MOTION    = 14.16176017
ECCENTRICITY   = .00071908
INCLINATION    = 71.0123
RA_OF_ASC_NODE = 14.7725
ARG_OF_PERICENTER = 185.3268
MEAN_ANOMALY   = 174.7780

EPHEMERIS_TYPE = 0
CLASSIFICATION_TYPE = U
NORAD_CAT_ID   = 25407
ELEMENT_SET_NO = 999
REV_AT_EPOCH   = 41409
BSTAR          = -.1820134E-4
MEAN_MOTION_DOT = -.84E-6
MEAN_MOTION_DDOT = 0

CCSDS_OMM_VERS = 2.0
CREATION_DATE  = 
ORIGINATOR     = 

OBJECT_NAME    = ISS (ZARYA)
OBJECT_ID      = 1998-067A
CENTER_NAME    = EARTH
REF_FRAME      = TEME
TIME_SYSTEM    = UTC
MEAN_ELEMENT_THEORY = SGP/SGP4

EPOCH          = 2025-12-07T21:32:16.385568
MEAN_MOTION    = 15.49404055
ECCENTRICITY   = .0003425
INCLINATION    = 51.6302
RA_OF_ASC_NODE = 166.4547
ARG_OF_PERICENTER = 217.7386
MEAN_ANOMALY   = 142.3363

EPHEMERIS_TYPE = 0
CLASSIFICATION_TYPE = U
NORAD_CAT_ID   = 25544
ELEMENT_SET_NO = 999
REV_AT_EPOCH   = 54210
BSTAR          = .22339025E-3
MEAN_MOTION_DOT = .12051E-3
MEAN_MOTION_DDOT = 0

CCSDS_OMM_VERS = 2.0
CREATION_DATE  = 
ORIGINATOR     = 

OBJECT_NAME    = CZ-4B R/B
OBJECT_ID      = 1999-025C
CENTER_NAME    = EARTH
REF_FRAME      = TEME
TIME_SYSTEM    = UTC
MEAN_ELEMENT_THEORY = SGP/SGP4

EPOCH          = 2025-12-07T17:59:17.955168
MEAN_MOTION    = 14.18241814
ECCENTRICITY   = .00361464
INCLINATION    = 98.6774
RA_OF_ASC_NODE = 23.1410
ARG_OF_PERICENTER = 248.7327
MEAN_ANOMALY   = 220.0607

EPHEMERIS_TYPE = 0
CLASSIFICATION_TYPE = U
NORAD_CAT_ID   = 25732
ELEMENT_SET_NO = 999
REV_AT_EPOCH   = 37513
BSTAR          = .10118284E-3
MEAN_MOTION_DOT = .166E-5
MEAN_MOTION_DDOT = 0

CCSDS_OMM_VERS = 2.0
CREATION_DATE  = 
ORIGINATOR     = 

OBJECT_NAME    = OKEAN-O
OBJECT_ID      = 1999-039A
CENTER_NAME    = EARTH
REF_FRAME      = TEME
TIME_SYSTEM    = UTC
MEAN_ELEMENT_THEORY = SGP/SGP4

EPOCH          = 2025-12-07T22:08:03.244992
MEAN_MOTION    = 14.80148091
ECCENTRICITY   = .00007987
INCLINATION    = 97.9608
RA_OF_ASC_NODE = 37.6655
ARG_OF_PERICENTER = 87.5746
MEAN_ANOMALY   = 272.5558

EPHEMERIS_TYPE = 0
CLASSIFICATION_TYPE = U
NORAD_CAT_ID   = 25860
ELEMENT_SET_NO = 999
REV_AT_EPOCH   = 42081
BSTAR          = .17879342E-3
MEAN_MOTION_DOT = .1305E-4
MEAN_MOTION_DDOT = 0

CCSDS_OMM_VERS = 2.0
CREATION_DATE  = 
ORIGINATOR     = 

OBJECT_NAME    = SL-16 R/B
OBJECT_ID      = 1999-039B
CENTER_NAME    = EARTH
REF_FRAME      = TEME
TIME_SYSTEM    = UTC
MEAN_ELEMENT_THEORY = SGP/SGP4

EPOCH          = 2025-12-07T17:15:52.710048
MEAN_MOTION    = 14.81575970
ECCENTRICITY   = .00145334
INCLINATION    = 98.0131
RA_OF_ASC_NODE = 35.8701
ARG_OF_PERICENTER = 191.0065
MEAN_ANOMALY   = 169.0832

EPHEMERIS_TYPE = 0
CLASSIFICATION_TYPE = U
NORAD_CAT_ID   = 25861
ELEMENT_SET_NO = 999
REV_AT_EPOCH   = 42324
BSTAR          = .16599547E-3
MEAN_MOTION_DOT = .1252E-4
MEAN_MOTION_DDOT = 0

CCSDS_OMM_VERS = 2.0
CREATION_DATE  = 
ORIGINATOR     = 

OBJECT_NAME    = DELTA 2 R/B
OBJECT_ID      = 1999-041E
CENTER_NAME    = EARTH
REF_FRAME      = TEME
TIME_SYSTEM    = UTC
MEAN_ELEMENT_THEORY = SGP/SGP4

EPOCH          = 2025-12-07T21:33:47.739744
MEAN_MOTION    = 14.11382233
ECCENTRICITY   = .05047654
INCLINATION    = 51.7620
RA_OF_ASC_NODE = 307.7717
ARG_OF_PERICENTER = 77.4997
MEAN_ANOMALY   = 288.1906

EPHEMERIS_TYPE = 0
CLASSIFICATION_TYPE = U
NORAD_CAT_ID   = 25876
ELEMENT_SET_NO = 999
REV_AT_EPOCH   = 35006
BSTAR          = .27167655E-3
MEAN_MOTION_DOT = .1441E-4
MEAN_MOTION_DDOT = 0

CCSDS_OMM_VERS = 2.0
CREATION_DATE  = 
ORIGINATOR     = 

OBJECT_NAME    = HELIOS 1B
OBJECT_ID      = 1999-064A
CENTER_NAME    = EARTH
REF_FRAME      = TEME
TIME_SYSTEM    = UTC
MEAN_ELEMENT_THEORY = SGP/SGP4

EPOCH          = 2025-12-07T16:34:04.207872
MEAN_MOTION    = 14.87251113
ECCENTRICITY   = .00019587
INCLINATION    = 98.1753
RA_OF_ASC_NODE = 236.2062
ARG_OF_PERICENTER = 48.8038
MEAN_ANOMALY   = 311.3345

EPHEMERIS_TYPE = 0
CLASSIFICATION_TYPE = U
NORAD_CAT_ID   = 25977
ELEMENT_SET_NO = 999
REV_AT_EPOCH   = 67158
BSTAR          = .36469408E-3
MEAN_MOTION_DOT = .3228E-4
MEAN_MOTION_DDOT = 0

CCSDS_OMM_VERS = 2.0
CREATION_DATE  = 
ORIGINATOR     = 

OBJECT_NAME    = TERRA
OBJECT_ID      = 1999-068A
CENTER_NAME    = EARTH
REF_FRAME      = TEME
TIME_SYSTEM    = UTC
MEAN_ELEMENT_THEORY = SGP/SGP4

EPOCH          = 2025-12-07T22:44:13.839360
MEAN_MOTION    = 14.60943753
ECCENTRICITY   = .0003519
INCLINATION    = 97.9754
RA_OF_ASC_NODE = 33.8076
ARG_OF_PERICENTER = 107.4946
MEAN_ANOMALY   = 353.8801

EPHEMERIS_TYPE = 0
CLASSIFICATION_TYPE = U
NORAD_CAT_ID   = 25994
ELEMENT_SET_NO = 999
REV_AT_EPOCH   = 38168
BSTAR          = .17800922E-3
MEAN_MOTION_DOT = .827E-5
MEAN_MOTION_DDOT = 0

CCSDS_OMM_VERS = 2.0
CREATION_DATE  = 
ORIGINATOR     = 

OBJECT_NAME    = SL-16 R/B
OBJECT_ID      = 2000-006B
CENTER_NAME    = EARTH
REF_FRAME      = TEME
TIME_SYSTEM    = UTC
MEAN_ELEMENT_THEORY = SGP/SGP4

EPOCH          = 2025-12-07T22:52:38.595072
MEAN_MOTION    = 14.15810229
ECCENTRICITY   = .00182522
INCLINATION    = 71.0031
RA_OF_ASC_NODE = 290.7212
ARG_OF_PERICENTER = 315.3094
MEAN_ANOMALY   = 44.6557

EPHEMERIS_TYPE = 0
CLASSIFICATION_TYPE = U
NORAD_CAT_ID   = 26070
ELEMENT_SET_NO = 999
REV_AT_EPOCH   = 33557
BSTAR          = .76995332E-4
MEAN_MOTION_DOT = .104E-5
MEAN_MOTION_DDOT = 0

CCSDS_OMM_VERS = 2.0
CREATION_DATE  = 
ORIGINATOR     = 

OBJECT_NAME    = TITAN 4B R/B
OBJECT_ID      = 2000-047B
CENTER_NAME    = EARTH
REF_FRAME      = TEME
TIME_SYSTEM    = UTC
MEAN_ELEMENT_THEORY = SGP/SGP4

EPOCH          = 2025-12-07T23:16:37.697664
MEAN_MOTION    = 15.08725905
ECCENTRICITY   = .00393194
INCLINATION    = 67.9905
RA_OF_ASC_NODE = 298.2502
ARG_OF_PERICENTER = 150.4316
MEAN_ANOMALY   = 209.9069

EPHEMERIS_TYPE = 0
CLASSIFICATION_TYPE = U
NORAD_CAT_ID   = 26474
ELEMENT_SET_NO = 999
REV_AT_EPOCH   = 37907
BSTAR          = .31730685E-3
MEAN_MOTION_DOT = .4948E-4
MEAN_MOTION_DDOT = 0

CCSDS_OMM_VERS = 2.0
CREATION_DATE  = 
ORIGINATOR     = 

OBJECT_NAME    = ENVISAT
OBJECT_ID      = 2002-009A
CENTER_NAME    = EARTH
REF_FRAME      = TEME
TIME_SYSTEM    = UTC
MEAN_ELEMENT_THEORY = SGP/SGP4

EPOCH          = 2025-12-07T21:22:25.762944
MEAN_MOTION    = 14.38996552
ECCENTRICITY   = .00011491
INCLINATION    = 98.3592
RA_OF_ASC_NODE = 292.7542
ARG_OF_PERICENTER = 81.6314
MEAN_ANOMALY   = 295.2596

EPHEMERIS_TYPE = 0
CLASSIFICATION_TYPE = U
NORAD_CAT_ID   = 27386
ELEMENT_SET_NO = 999
REV_AT_EPOCH   = 24597
BSTAR          = .10463906E-3
MEAN_MOTION_DOT = .28E-5
MEAN_MOTION_DDOT = 0

