SL-16 R/B               
1 25400U 98043G   25341.88685853  .00000142  00000+0  78380-4 0  9997
2 25400  98.8117 289.6780 0008860 282.4564  77.5624 14.26023650425900
SL-16 R/B               
1 25407U 98045B   25341.82033776 -.00000084  00000+0 -18201-4 0  9994
2 25407  71.0123  14.7725 0007190 185.3268 174.7780 14.16176017414096
ISS (ZARYA)             
1 25544U 98067A   25341.89741187  .00012051  00000+0  22339-3 0  9990
2 25544  51.6302 166.4547 0003425 217.7386 142.3363 15.49404055542101
CZ-4B R/B               
1 25732U 99025C   25341.74951337  .00000166  00000+0  10118-3 0  9994
2 25732  98.6774  23.1410 0036146 248.7327 220.0607 14.18241814375136
OKEAN-O                 
1 25860U 99039A   25341.92225978  .00001305  00000+0  17879-3 0  9993
2 25860  97.9608  37.6655 0000798  87.5746 272.5558 14.80148091420810
SL-16 R/B               
1 25861U 99039B   25341.71936007  .00001252  00000+0  16600-3 0  9995
2 25861  98.0131  35.8701 0014533 191.0065 169.0832 14.81575970423249
DELTA 2 R/B             
1 25876U 99041E   25341.89846921  .00001441  00000+0  27168-3 0  9999
2 25876  51.7620 307.7717 0504765  77.4997 288.1906 14.11382233350069
HELIOS 1B               
1 25977U 99064A   25341.69032648  .00003228  00000+0  36469-3 0  9996
2 25977  98.1753 236.2062 0001958  48.8038 311.3345 14.87251113671580
TERRA                   
1 25994U 99068A   25341.94738240  .00000827  00000+0  17801-3 0  9999
2 25994  97.9754  33.8076 0003519 107.4946 353.8801 14.60943753381684
SL-16 R/B               
1 26070U 00006B   25341.95322448  .00000104  00000+0  76995-4 0  9997
2 26070  71.0031 290.7212 0018252 315.3094  44.6557 14.15810229335572
TITAN 4B R/B            
1 26474U 00047B   25341.96988076  .00004948  00000+0  31731-3 0  9994
2 26474  67.9905 298.2502 0039319 150.4316 209.9069 15.08725905379077
ENVISAT                 
1 27386U 02009A   25341.89057596  .00000280  00000+0  10464-3 0  9998
2 27386  98.3592 292.7542 0001149  81.6314 295.2596 14.38996552245970
